[{"OBJECT_NAME":"JILIN-1 GAOFEN 03D12","OBJECT_ID":"2022-019T","EPOCH":"2026-03-09T23:55:09.134400","MEAN_MOTION":15.69542894,"ECCENTRICITY":0.00024096,"INCLINATION":97.3665,"RA_OF_ASC_NODE":160.1413,"ARG_OF_PERICENTER":153.7003,"MEAN_ANOMALY":206.4382,"EPHEMERIS_TYPE":0,"CLASSIFICATION_TYPE":"U","NORAD_CAT_ID":51841,"ELEMENT_SET_NO":999,"REV_AT_EPOCH":22441,"BSTAR":0.0010852586,"MEAN_MOTION_DOT":0.00129444,"MEAN_MOTION_DDOT":0},{"OBJECT_NAME":"STARLINK-11151 [DTC]","OBJECT_ID":"2024-112M","EPOCH":"2026-03-09T19:31:06.924576","MEAN_MOTION":15.69685648,"ECCENTRICITY":4.917e-5,"INCLINATION":53.1588,"RA_OF_ASC_NODE":265.4212,"ARG_OF_PERICENTER":75.6701,"MEAN_ANOMALY":284.4371,"EPHEMERIS_TYPE":0,"CLASSIFICATION_TYPE":"U","NORAD_CAT_ID":60049,"ELEMENT_SET_NO":999,"REV_AT_EPOCH":10100,"BSTAR":3.9048635e-5,"MEAN_MOTION_DOT":4.141e-5,"MEAN_MOTION_DDOT":0}]
